ONEWEB-0012             
1 44057U 19010A   25275.25001156 -.00013886  00000+0 -36413-1 0  9997
2 44057  87.8965 280.1955 0001663  78.4062 312.5718 13.16595044  4984
ONEWEB-0010             
1 44058U 19010B   25275.04083653 -.00000245  00000+0 -67389-3 0  9990
2 44058  87.8967 280.2214 0001749 102.7533 257.3794 13.16593588317646
ONEWEB-0008             
1 44059U 19010C   25275.06616919 -.00000008  00000+0 -54800-4 0  9992
2 44059  87.8965 280.2133 0002083  88.1929 271.9440 13.16593360317764
ONEWEB-0007             
1 44060U 19010D   25275.12440922 -.00000333  00000+0 -91959-3 0  9996
2 44060  87.8998 310.7304 0001574  99.1498 260.9810 13.15547879317445
ONEWEB-0006             
1 44061U 19010E   25275.12836076 -.00000396  00000+0 -10870-2 0  9997
2 44061  87.9004 310.6710 0001709 101.4814 258.6508 13.15547612317492
ONEWEB-0011             
1 44062U 19010F   25275.09667487  .00000209  00000+0  52177-3 0  9990
2 44062  87.9000 310.6902 0002027  98.3750 261.7611 13.15547067317482
ONEWEB-0013             
1 45131U 20008A   25275.05200838  .00000802  00000+0  22908-2 0  9993
2 45131  87.8460 104.9597 0001559  50.7835 309.3430 13.09436340272288
ONEWEB-0017             
1 45132U 20008B   25274.98772543 -.00000110  00000+0 -35009-3 0  9993
2 45132  87.8742  87.7570 0001685  98.6357 261.4961 13.10375613274131
ONEWEB-0020             
1 45133U 20008C   25275.03421036 -.00000185  00000+0 -56669-3 0  9996
2 45133  87.8733  87.7310 0001909  90.4914 269.6432 13.10369858274533
ONEWEB-0021             
1 45134U 20008D   25275.04913515 -.00000511  00000+0 -14993-2 0  9992
2 45134  87.8737  87.7616 0001571  90.8071 269.3236 13.10375102274842
ONEWEB-0023             
1 45136U 20008F   25274.98357766 -.00000291  00000+0 -87098-3 0  9998
2 45136  87.8739  87.7573 0001846  83.8438 276.2900 13.10375538274266
ONEWEB-0024             
1 45137U 20008G   25275.03255216 -.00000155  00000+0 -48067-3 0  9995
2 45137  87.8752  87.7028 0001641  92.8836 267.2479 13.10371574274438
ONEWEB-0025             
1 45138U 20008H   25274.97360407 -.00000534  00000+0 -15663-2 0  9993
2 45138  87.8750  87.7235 0001400  69.3393 290.7884 13.10372984274759
ONEWEB-0026             
1 45139U 20008J   25274.97029964  .00000657  00000+0  18180-2 0  9995
2 45139  87.8792  72.4948 0001797  98.3708 261.7623 13.11415926277262
ONEWEB-0028             
1 45140U 20008K   25275.15593244 -.00000477  00000+0 -13822-2 0  9995
2 45140  87.8791  72.4775 0001419  70.9186 289.2096 13.11413769274807
ONEWEB-0032             
1 45141U 20008L   25274.98938400 -.00000006  00000+0 -52548-4 0  9991
2 45141  87.8742  87.7565 0001604  83.3831 276.7478 13.10378378274485
ONEWEB-0033             
1 45142U 20008M   25275.04084255 -.00000514  00000+0 -15096-2 0  9999
2 45142  87.8738  87.7582 0001698  97.2814 262.8507 13.10371751274407
