[{"OBJECT_NAME":"ONEWEB-0012","OBJECT_ID":"2019-010A","EPOCH":"2025-10-02T06:00:00.998784","MEAN_MOTION":13.16595044,"ECCENTRICITY":0.0001663,"INCLINATION":87.8965,"RA_OF_ASC_NODE":280.1955,"ARG_OF_PERICENTER":78.4062,"MEAN_ANOMALY":312.5718,"EPHEMERIS_TYPE":0,"CLASSIFICATION_TYPE":"U","NORAD_CAT_ID":44057,"ELEMENT_SET_NO":999,"REV_AT_EPOCH":498,"BSTAR":-0.036413,"MEAN_MOTION_DOT":-0.00013886,"MEAN_MOTION_DDOT":0},{"OBJECT_NAME":"ONEWEB-0010","OBJECT_ID":"2019-010B","EPOCH":"2025-10-02T00:58:48.276192","MEAN_MOTION":13.16593588,"ECCENTRICITY":0.0001749,"INCLINATION":87.8967,"RA_OF_ASC_NODE":280.2214,"ARG_OF_PERICENTER":102.7533,"MEAN_ANOMALY":257.3794,"EPHEMERIS_TYPE":0,"CLASSIFICATION_TYPE":"U","NORAD_CAT_ID":44058,"ELEMENT_SET_NO":999,"REV_AT_EPOCH":31764,"BSTAR":-0.00067389,"MEAN_MOTION_DOT":-2.45e-6,"MEAN_MOTION_DDOT":0},{"OBJECT_NAME":"ONEWEB-0008","OBJECT_ID":"2019-010C","EPOCH":"2025-10-02T01:35:17.018016","MEAN_MOTION":13.1659336,"ECCENTRICITY":0.0002083,"INCLINATION":87.8965,"RA_OF_ASC_NODE":280.2133,"ARG_OF_PERICENTER":88.1929,"MEAN_ANOMALY":271.944,"EPHEMERIS_TYPE":0,"CLASSIFICATION_TYPE":"U","NORAD_CAT_ID":44059,"ELEMENT_SET_NO":999,"REV_AT_EPOCH":31776,"BSTAR":-5.48e-5,"MEAN_MOTION_DOT":-8.0e-8,"MEAN_MOTION_DDOT":0},{"OBJECT_NAME":"ONEWEB-0007","OBJECT_ID":"2019-010D","EPOCH":"2025-10-02T02:59:08.956608","MEAN_MOTION":13.15547879,"ECCENTRICITY":0.0001574,"INCLINATION":87.8998,"RA_OF_ASC_NODE":310.7304,"ARG_OF_PERICENTER":99.1498,"MEAN_ANOMALY":260.981,"EPHEMERIS_TYPE":0,"CLASSIFICATION_TYPE":"U","NORAD_CAT_ID":44060,"ELEMENT_SET_NO":999,"REV_AT_EPOCH":31744,"BSTAR":-0.00091959,"MEAN_MOTION_DOT":-3.33e-6,"MEAN_MOTION_DDOT":0},{"OBJECT_NAME":"ONEWEB-0006","OBJECT_ID":"2019-010E","EPOCH":"2025-10-02T03:04:50.369664","MEAN_MOTION":13.15547612,"ECCENTRICITY":0.0001709,"INCLINATION":87.9004,"RA_OF_ASC_NODE":310.671,"ARG_OF_PERICENTER":101.4814,"MEAN_ANOMALY":258.6508,"EPHEMERIS_TYPE":0,"CLASSIFICATION_TYPE":"U","NORAD_CAT_ID":44061,"ELEMENT_SET_NO":999,"REV_AT_EPOCH":31749,"BSTAR":-0.001087,"MEAN_MOTION_DOT":-3.96e-6,"MEAN_MOTION_DDOT":0},{"OBJECT_NAME":"ONEWEB-0011","OBJECT_ID":"2019-010F","EPOCH":"2025-10-02T02:19:12.708768","MEAN_MOTION":13.15547067,"ECCENTRICITY":0.0002027,"INCLINATION":87.9,"RA_OF_ASC_NODE":310.6902,"ARG_OF_PERICENTER":98.375,"MEAN_ANOMALY":261.7611,"EPHEMERIS_TYPE":0,"CLASSIFICATION_TYPE":"U","NORAD_CAT_ID":44062,"ELEMENT_SET_NO":999,"REV_AT_EPOCH":31748,"BSTAR":0.00052177,"MEAN_MOTION_DOT":2.09e-6,"MEAN_MOTION_DDOT":0},{"OBJECT_NAME":"ONEWEB-0013","OBJECT_ID":"2020-008A","EPOCH":"2025-10-02T01:14:53.524032","MEAN_MOTION":13.0943634,"ECCENTRICITY":0.0001559,"INCLINATION":87.846,"RA_OF_ASC_NODE":104.9597,"ARG_OF_PERICENTER":50.7835,"MEAN_ANOMALY":309.343,"EPHEMERIS_TYPE":0,"CLASSIFICATION_TYPE":"U","NORAD_CAT_ID":45131,"ELEMENT_SET_NO":999,"REV_AT_EPOCH":27228,"BSTAR":0.0022908,"MEAN_MOTION_DOT":8.02e-6,"MEAN_MOTION_DDOT":0},{"OBJECT_NAME":"ONEWEB-0017","OBJECT_ID":"2020-008B","EPOCH":"2025-10-01T23:42:19.477152","MEAN_MOTION":13.10375613,"ECCENTRICITY":0.0001685,"INCLINATION":87.8742,"RA_OF_ASC_NODE":87.757,"ARG_OF_PERICENTER":98.6357,"MEAN_ANOMALY":261.4961,"EPHEMERIS_TYPE":0,"CLASSIFICATION_TYPE":"U","NORAD_CAT_ID":45132,"ELEMENT_SET_NO":999,"REV_AT_EPOCH":27413,"BSTAR":-0.00035009,"MEAN_MOTION_DOT":-1.1e-6,"MEAN_MOTION_DDOT":0},{"OBJECT_NAME":"ONEWEB-0020","OBJECT_ID":"2020-008C","EPOCH":"2025-10-02T00:49:15.775104","MEAN_MOTION":13.10369858,"ECCENTRICITY":0.0001909,"INCLINATION":87.8733,"RA_OF_ASC_NODE":87.731,"ARG_OF_PERICENTER":90.4914,"MEAN_ANOMALY":269.6432,"EPHEMERIS_TYPE":0,"CLASSIFICATION_TYPE":"U","NORAD_CAT_ID":45133,"ELEMENT_SET_NO":999,"REV_AT_EPOCH":27453,"BSTAR":-0.00056669,"MEAN_MOTION_DOT":-1.85e-6,"MEAN_MOTION_DDOT":0},{"OBJECT_NAME":"ONEWEB-0021","OBJECT_ID":"2020-008D","EPOCH":"2025-10-02T01:10:45.276960","MEAN_MOTION":13.10375102,"ECCENTRICITY":0.0001571,"INCLINATION":87.8737,"RA_OF_ASC_NODE":87.7616,"ARG_OF_PERICENTER":90.8071,"MEAN_ANOMALY":269.3236,"EPHEMERIS_TYPE":0,"CLASSIFICATION_TYPE":"U","NORAD_CAT_ID":45134,"ELEMENT_SET_NO":999,"REV_AT_EPOCH":27484,"BSTAR":-0.0014993,"MEAN_MOTION_DOT":-5.11e-6,"MEAN_MOTION_DDOT":0},{"OBJECT_NAME":"ONEWEB-0023","OBJECT_ID":"2020-008F","EPOCH":"2025-10-01T23:36:21.109824","MEAN_MOTION":13.10375538,"ECCENTRICITY":0.0001846,"INCLINATION":87.8739,"RA_OF_ASC_NODE":87.7573,"ARG_OF_PERICENTER":83.8438,"MEAN_ANOMALY":276.29,"EPHEMERIS_TYPE":0,"CLASSIFICATION_TYPE":"U","NORAD_CAT_ID":45136,"ELEMENT_SET_NO":999,"REV_AT_EPOCH":27426,"BSTAR":-0.00087098,"MEAN_MOTION_DOT":-2.91e-6,"MEAN_MOTION_DDOT":0},{"OBJECT_NAME":"ONEWEB-0024","OBJECT_ID":"2020-008G","EPOCH":"2025-10-02T00:46:52.506624","MEAN_MOTION":13.10371574,"ECCENTRICITY":0.0001641,"INCLINATION":87.8752,"RA_OF_ASC_NODE":87.7028,"ARG_OF_PERICENTER":92.8836,"MEAN_ANOMALY":267.2479,"EPHEMERIS_TYPE":0,"CLASSIFICATION_TYPE":"U","NORAD_CAT_ID":45137,"ELEMENT_SET_NO":999,"REV_AT_EPOCH":27443,"BSTAR":-0.00048067,"MEAN_MOTION_DOT":-1.55e-6,"MEAN_MOTION_DDOT":0},{"OBJECT_NAME":"ONEWEB-0025","OBJECT_ID":"2020-008H","EPOCH":"2025-10-01T23:21:59.391648","MEAN_MOTION":13.10372984,"ECCENTRICITY":0.00014,"INCLINATION":87.875,"RA_OF_ASC_NODE":87.7235,"ARG_OF_PERICENTER":69.3393,"MEAN_ANOMALY":290.7884,"EPHEMERIS_TYPE":0,"CLASSIFICATION_TYPE":"U","NORAD_CAT_ID":45138,"ELEMENT_SET_NO":999,"REV_AT_EPOCH":27475,"BSTAR":-0.0015663,"MEAN_MOTION_DOT":-5.34e-6,"MEAN_MOTION_DDOT":0},{"OBJECT_NAME":"ONEWEB-0026","OBJECT_ID":"2020-008J","EPOCH":"2025-10-01T23:17:13.888896","MEAN_MOTION":13.11415926,"ECCENTRICITY":0.0001797,"INCLINATION":87.8792,"RA_OF_ASC_NODE":72.4948,"ARG_OF_PERICENTER":98.3708,"MEAN_ANOMALY":261.7623,"EPHEMERIS_TYPE":0,"CLASSIFICATION_TYPE":"U","NORAD_CAT_ID":45139,"ELEMENT_SET_NO":999,"REV_AT_EPOCH":27726,"BSTAR":0.001818,"MEAN_MOTION_DOT":6.57e-6,"MEAN_MOTION_DDOT":0},{"OBJECT_NAME":"ONEWEB-0028","OBJECT_ID":"2020-008K","EPOCH":"2025-10-02T03:44:32.562816","MEAN_MOTION":13.11413769,"ECCENTRICITY":0.0001419,"INCLINATION":87.8791,"RA_OF_ASC_NODE":72.4775,"ARG_OF_PERICENTER":70.9186,"MEAN_ANOMALY":289.2096,"EPHEMERIS_TYPE":0,"CLASSIFICATION_TYPE":"U","NORAD_CAT_ID":45140,"ELEMENT_SET_NO":999,"REV_AT_EPOCH":27480,"BSTAR":-0.0013822,"MEAN_MOTION_DOT":-4.77e-6,"MEAN_MOTION_DDOT":0},{"OBJECT_NAME":"ONEWEB-0032","OBJECT_ID":"2020-008L","EPOCH":"2025-10-01T23:44:42.777600","MEAN_MOTION":13.10378378,"ECCENTRICITY":0.0001604,"INCLINATION":87.8742,"RA_OF_ASC_NODE":87.7565,"ARG_OF_PERICENTER":83.3831,"MEAN_ANOMALY":276.7478,"EPHEMERIS_TYPE":0,"CLASSIFICATION_TYPE":"U","NORAD_CAT_ID":45141,"ELEMENT_SET_NO":999,"REV_AT_EPOCH":27448,"BSTAR":-5.2548e-5,"MEAN_MOTION_DOT":-6.0e-8,"MEAN_MOTION_DDOT":0},{"OBJECT_NAME":"ONEWEB-0033","OBJECT_ID":"2020-008M","EPOCH":"2025-10-02T00:58:48.796320","MEAN_MOTION":13.10371751,"ECCENTRICITY":0.0001698,"INCLINATION":87.8738,"RA_OF_ASC_NODE":87.7582,"ARG_OF_PERICENTER":97.2814,"MEAN_ANOMALY":262.8507,"EPHEMERIS_TYPE":0,"CLASSIFICATION_TYPE":"U","NORAD_CAT_ID":45142,"ELEMENT_SET_NO":999,"REV_AT_EPOCH":27440,"BSTAR":-0.0015096,"MEAN_MOTION_DOT":-5.14e-6,"MEAN_MOTION_DDOT":0}]
